[{"OBJECT_NAME":"ZHONGXING-2C","OBJECT_ID":"2015-063A","EPOCH":"2026-04-25T22:39:34.241184","MEAN_MOTION":1.00272771,"ECCENTRICITY":0.00063923,"INCLINATION":0.1394,"RA_OF_ASC_NODE":92.628,"ARG_OF_PERICENTER":111.6877,"MEAN_ANOMALY":92.975,"EPHEMERIS_TYPE":0,"CLASSIFICATION_TYPE":"U","NORAD_CAT_ID":41021,"ELEMENT_SET_NO":999,"REV_AT_EPOCH":3845,"BSTAR":0,"MEAN_MOTION_DOT":-3.37e-6,"MEAN_MOTION_DDOT":0},{"OBJECT_NAME":"GSAT-15","OBJECT_ID":"2015-065A","EPOCH":"2026-04-25T23:09:52.117056","MEAN_MOTION":1.00272175,"ECCENTRICITY":0.00036811,"INCLINATION":0.0707,"RA_OF_ASC_NODE":257.4227,"ARG_OF_PERICENTER":143.4092,"MEAN_ANOMALY":254.1198,"EPHEMERIS_TYPE":0,"CLASSIFICATION_TYPE":"U","NORAD_CAT_ID":41028,"ELEMENT_SET_NO":999,"REV_AT_EPOCH":3827,"BSTAR":0,"MEAN_MOTION_DOT":-2.71e-6,"MEAN_MOTION_DDOT":0},{"OBJECT_NAME":"BADR-7 (ARABSAT-6B)","OBJECT_ID":"2015-065B","EPOCH":"2026-04-25T23:18:10.575072","MEAN_MOTION":1.00270361,"ECCENTRICITY":0.00024129,"INCLINATION":0.0335,"RA_OF_ASC_NODE":237.607,"ARG_OF_PERICENTER":357.7665,"MEAN_ANOMALY":354.138,"EPHEMERIS_TYPE":0,"CLASSIFICATION_TYPE":"U","NORAD_CAT_ID":41029,"ELEMENT_SET_NO":999,"REV_AT_EPOCH":3824,"BSTAR":0,"MEAN_MOTION_DOT":1.31e-6,"MEAN_MOTION_DDOT":0},{"OBJECT_NAME":"LAOSAT 1","OBJECT_ID":"2015-067A","EPOCH":"2026-04-25T22:46:41.058912","MEAN_MOTION":1.0027127,"ECCENTRICITY":0.0002312,"INCLINATION":0.0161,"RA_OF_ASC_NODE":237.4073,"ARG_OF_PERICENTER":121.2429,"MEAN_ANOMALY":325.4683,"EPHEMERIS_TYPE":0,"CLASSIFICATION_TYPE":"U","NORAD_CAT_ID":41034,"ELEMENT_SET_NO":999,"REV_AT_EPOCH":3833,"BSTAR":0,"MEAN_MOTION_DOT":0,"MEAN_MOTION_DDOT":0},{"OBJECT_NAME":"TELSTAR 12V","OBJECT_ID":"2015-068A","EPOCH":"2026-04-25T22:05:44.984256","MEAN_MOTION":1.00271627,"ECCENTRICITY":0.00024524,"INCLINATION":0.007,"RA_OF_ASC_NODE":211.9089,"ARG_OF_PERICENTER":177.3915,"MEAN_ANOMALY":141.0687,"EPHEMERIS_TYPE":0,"CLASSIFICATION_TYPE":"U","NORAD_CAT_ID":41036,"ELEMENT_SET_NO":999,"REV_AT_EPOCH":3810,"BSTAR":0,"MEAN_MOTION_DOT":-1.32e-6,"MEAN_MOTION_DDOT":0},{"OBJECT_NAME":"ELEKTRO-L 2","OBJECT_ID":"2015-074A","EPOCH":"2026-04-25T16:57:49.817376","MEAN_MOTION":1.00270542,"ECCENTRICITY":0.00022984,"INCLINATION":6.5646,"RA_OF_ASC_NODE":71.154,"ARG_OF_PERICENTER":254.2871,"MEAN_ANOMALY":128.2279,"EPHEMERIS_TYPE":0,"CLASSIFICATION_TYPE":"U","NORAD_CAT_ID":41105,"ELEMENT_SET_NO":999,"REV_AT_EPOCH":3798,"BSTAR":0,"MEAN_MOTION_DOT":-1.27e-6,"MEAN_MOTION_DDOT":0},{"OBJECT_NAME":"COSMOS 2513","OBJECT_ID":"2015-075A","EPOCH":"2026-04-25T03:43:25.874112","MEAN_MOTION":1.00270389,"ECCENTRICITY":0.00031149,"INCLINATION":0.0606,"RA_OF_ASC_NODE":89.4059,"ARG_OF_PERICENTER":311.9726,"MEAN_ANOMALY":307.9048,"EPHEMERIS_TYPE":0,"CLASSIFICATION_TYPE":"U","NORAD_CAT_ID":41121,"ELEMENT_SET_NO":999,"REV_AT_EPOCH":3801,"BSTAR":0,"MEAN_MOTION_DOT":-1.52e-6,"MEAN_MOTION_DDOT":0},{"OBJECT_NAME":"EXPRESS-AMU1","OBJECT_ID":"2015-082A","EPOCH":"2026-04-25T22:35:38.624064","MEAN_MOTION":1.00268331,"ECCENTRICITY":0.00029924,"INCLINATION":0.0193,"RA_OF_ASC_NODE":243.0889,"ARG_OF_PERICENTER":138.3226,"MEAN_ANOMALY":207.5602,"EPHEMERIS_TYPE":0,"CLASSIFICATION_TYPE":"U","NORAD_CAT_ID":41191,"ELEMENT_SET_NO":999,"REV_AT_EPOCH":3774,"BSTAR":0,"MEAN_MOTION_DOT":0,"MEAN_MOTION_DDOT":0},{"OBJECT_NAME":"GAOFEN-4","OBJECT_ID":"2015-083A","EPOCH":"2026-04-25T14:06:41.986944","MEAN_MOTION":1.00267707,"ECCENTRICITY":0.00032035,"INCLINATION":0.3731,"RA_OF_ASC_NODE":82.6392,"ARG_OF_PERICENTER":131.5552,"MEAN_ANOMALY":316.745,"EPHEMERIS_TYPE":0,"CLASSIFICATION_TYPE":"U","NORAD_CAT_ID":41194,"ELEMENT_SET_NO":999,"REV_AT_EPOCH":3800,"BSTAR":0,"MEAN_MOTION_DOT":-3.48e-6,"MEAN_MOTION_DDOT":0},{"OBJECT_NAME":"BELINTERSAT-1","OBJECT_ID":"2016-001A","EPOCH":"2026-04-25T23:19:17.112576","MEAN_MOTION":1.00269448,"ECCENTRICITY":0.00022197,"INCLINATION":0.0126,"RA_OF_ASC_NODE":235.9599,"ARG_OF_PERICENTER":131.44,"MEAN_ANOMALY":247.9268,"EPHEMERIS_TYPE":0,"CLASSIFICATION_TYPE":"U","NORAD_CAT_ID":41238,"ELEMENT_SET_NO":999,"REV_AT_EPOCH":3771,"BSTAR":0,"MEAN_MOTION_DOT":9.4e-7,"MEAN_MOTION_DDOT":0},{"OBJECT_NAME":"IRNSS-1E","OBJECT_ID":"2016-003A","EPOCH":"2026-04-21T21:23:25.861920","MEAN_MOTION":1.00277854,"ECCENTRICITY":0.00172458,"INCLINATION":33.1155,"RA_OF_ASC_NODE":60.561,"ARG_OF_PERICENTER":183.4571,"MEAN_ANOMALY":38.526,"EPHEMERIS_TYPE":0,"CLASSIFICATION_TYPE":"U","NORAD_CAT_ID":41241,"ELEMENT_SET_NO":999,"REV_AT_EPOCH":3751,"BSTAR":0,"MEAN_MOTION_DOT":-3.02e-6,"MEAN_MOTION_DDOT":0},{"OBJECT_NAME":"EUTELSAT 9B","OBJECT_ID":"2016-005A","EPOCH":"2026-04-25T22:12:36.825408","MEAN_MOTION":1.00272977,"ECCENTRICITY":0.00034458,"INCLINATION":0.0733,"RA_OF_ASC_NODE":71.9885,"ARG_OF_PERICENTER":285.9156,"MEAN_ANOMALY":198.1752,"EPHEMERIS_TYPE":0,"CLASSIFICATION_TYPE":"U","NORAD_CAT_ID":41310,"ELEMENT_SET_NO":999,"REV_AT_EPOCH":3759,"BSTAR":0,"MEAN_MOTION_DOT":4.8e-7,"MEAN_MOTION_DDOT":0},{"OBJECT_NAME":"SES-9","OBJECT_ID":"2016-013A","EPOCH":"2026-04-25T22:34:21.631296","MEAN_MOTION":1.00270312,"ECCENTRICITY":0.00019963,"INCLINATION":0.0164,"RA_OF_ASC_NODE":285.3139,"ARG_OF_PERICENTER":134.1316,"MEAN_ANOMALY":241.3811,"EPHEMERIS_TYPE":0,"CLASSIFICATION_TYPE":"U","NORAD_CAT_ID":41380,"ELEMENT_SET_NO":999,"REV_AT_EPOCH":3691,"BSTAR":0,"MEAN_MOTION_DOT":-3.58e-6,"MEAN_MOTION_DDOT":0},{"OBJECT_NAME":"EUTELSAT 65 WEST A","OBJECT_ID":"2016-014A","EPOCH":"2026-04-25T21:51:23.861376","MEAN_MOTION":1.00273042,"ECCENTRICITY":0.00022253,"INCLINATION":0.0584,"RA_OF_ASC_NODE":28.7157,"ARG_OF_PERICENTER":355.6626,"MEAN_ANOMALY":92.1917,"EPHEMERIS_TYPE":0,"CLASSIFICATION_TYPE":"U","NORAD_CAT_ID":41382,"ELEMENT_SET_NO":999,"REV_AT_EPOCH":3700,"BSTAR":0,"MEAN_MOTION_DOT":-2.9e-6,"MEAN_MOTION_DDOT":0},{"OBJECT_NAME":"BEIDOU-2 IGSO-6","OBJECT_ID":"2016-021A","EPOCH":"2026-04-22T20:32:03.319008","MEAN_MOTION":1.00270364,"ECCENTRICITY":0.00558668,"INCLINATION":60.1522,"RA_OF_ASC_NODE":38.5901,"ARG_OF_PERICENTER":232.0601,"MEAN_ANOMALY":343.5038,"EPHEMERIS_TYPE":0,"CLASSIFICATION_TYPE":"U","NORAD_CAT_ID":41434,"ELEMENT_SET_NO":999,"REV_AT_EPOCH":3692,"BSTAR":0,"MEAN_MOTION_DOT":-1.69e-6,"MEAN_MOTION_DDOT":0},{"OBJECT_NAME":"IRNSS-1G","OBJECT_ID":"2016-027A","EPOCH":"2026-04-25T21:04:13.385280","MEAN_MOTION":1.00276207,"ECCENTRICITY":0.00058808,"INCLINATION":5.0672,"RA_OF_ASC_NODE":98.7029,"ARG_OF_PERICENTER":345.3501,"MEAN_ANOMALY":215.4963,"EPHEMERIS_TYPE":0,"CLASSIFICATION_TYPE":"U","NORAD_CAT_ID":41469,"ELEMENT_SET_NO":999,"REV_AT_EPOCH":3665,"BSTAR":0,"MEAN_MOTION_DOT":-3.42e-6,"MEAN_MOTION_DDOT":0},{"OBJECT_NAME":"JCSAT-2B","OBJECT_ID":"2016-028A","EPOCH":"2026-04-25T21:11:12.714720","MEAN_MOTION":1.00274882,"ECCENTRICITY":0.00013176,"INCLINATION":0.0171,"RA_OF_ASC_NODE":234.3707,"ARG_OF_PERICENTER":173.0526,"MEAN_ANOMALY":278.2828,"EPHEMERIS_TYPE":0,"CLASSIFICATION_TYPE":"U","NORAD_CAT_ID":41471,"ELEMENT_SET_NO":999,"REV_AT_EPOCH":3660,"BSTAR":0,"MEAN_MOTION_DOT":0,"MEAN_MOTION_DDOT":0}]
